OBJECT_NAME,OBJECT_ID,EPOCH,MEAN_MOTION,ECCENTRICITY,INCLINATION,RA_OF_ASC_NODE,ARG_OF_PERICENTER,MEAN_ANOMALY,EPHEMERIS_TYPE,CLASSIFICATION_TYPE,NORAD_CAT_ID,ELEMENT_SET_NO,REV_AT_EPOCH,BSTAR,MEAN_MOTION_DOT,MEAN_MOTION_DDOT
ONEWEB-0401,2021-132N,2026-07-06T22:24:50.815008,13.18686128,.0001657,87.9191,331.5146,101.0525,259.0794,0,U,50481,999,22421,.254E-4,.23E-6,0
ONEWEB-0402,2021-132P,2026-07-06T21:31:25.401792,13.18686928,.0001399,87.9191,331.5114,102.2199,257.9090,0,U,50482,999,22423,.14018E-3,.68E-6,0
ONEWEB-0403,2021-132Q,2026-07-06T22:07:51.043584,13.18685844,.0001867,87.9191,331.5305,92.2569,267.8777,0,U,50483,999,22419,.52429E-5,.15E-6,0
ONEWEB-0404,2021-132R,2026-07-06T22:33:15.390144,13.11416793,.0001961,87.8883,17.1340,79.1952,280.9397,0,U,50484,999,21828,-.13066E-2,-.45E-5,0
ONEWEB-0405,2021-132S,2026-07-06T22:27:15.227424,13.18684369,.000232,87.9193,331.5126,100.0306,260.1088,0,U,50485,999,22459,.55495E-4,.35E-6,0
ONEWEB-0406,2021-132T,2026-07-06T22:15:07.761024,13.18686118,.0001958,87.9187,331.5296,81.1440,278.9913,0,U,50486,999,22422,.16929E-5,.14E-6,0
ONEWEB-0407,2021-132U,2026-07-06T22:05:24.684576,13.18687545,.0001858,87.9190,331.5239,103.6591,256.4748,0,U,50487,999,22416,.57702E-4,.36E-6,0
ONEWEB-0409,2021-132V,2026-07-06T13:21:29.241216,13.11416280,.0002048,87.8887,17.1994,82.6074,277.5287,0,U,50488,999,21812,-.15131E-2,-.524E-5,0
ONEWEB-0412,2021-132W,2026-07-06T21:48:25.288128,13.18686014,.0001555,87.9187,331.5343,99.6206,260.5102,0,U,50489,999,22425,.77934E-4,.44E-6,0
ONEWEB-0413,2021-132X,2026-07-06T21:55:42.631968,13.18686934,.0001666,87.9179,331.5302,104.9555,255.1762,0,U,50490,999,22419,.13532E-3,.66E-6,0
ONEWEB-0414,2021-132Y,2026-07-06T21:33:51.314976,13.18686202,.0001692,87.9188,331.5173,94.3492,265.7833,0,U,50491,999,22422,.10178E-3,.53E-6,0
ONEWEB-0417,2021-132Z,2026-07-06T21:45:59.469984,13.18686490,.0001937,87.9181,331.5336,89.5967,270.5387,0,U,50492,999,22420,.33807E-4,.26E-6,0
ONEWEB-0418,2021-132AA,2026-07-06T22:00:21.302208,13.18685698,.0001964,87.9184,331.5322,89.2803,270.8554,0,U,50493,999,22426,.12797E-3,.63E-6,0
ONEWEB-0419,2021-132AB,2026-07-06T22:27:34.390080,13.18666040,.0002128,87.9191,331.5286,93.5423,266.5952,0,U,50494,999,22418,.63511E-4,.38E-6,0
ONEWEB-0420,2021-132AC,2026-07-06T21:36:15.902784,13.18686844,.0001882,87.9180,331.5372,102.7117,257.4226,0,U,50495,999,22417,.45436E-4,.31E-6,0
ONEWEB-0421,2021-132AD,2026-07-06T21:26:34.836864,13.18685847,.0001485,87.9183,331.5367,92.4292,267.7010,0,U,50496,999,22421,.22747E-3,.103E-5,0
ONEWEB-0424,2021-132AE,2026-07-06T22:19:59.460384,13.18686344,.0002236,87.9190,331.5280,96.1916,263.9470,0,U,50497,999,22424,-.74366E-4,-.16E-6,0
ONEWEB-0426,2021-132AF,2026-07-06T21:20:30.077664,13.18685419,.0001608,87.9188,331.5276,74.7598,285.3712,0,U,50498,999,22418,.1475E-3,.71E-6,0
ONEWEB-0427,2021-132AG,2026-07-06T22:17:33.853056,13.18686355,.0001889,87.9191,331.5084,90.6411,269.4938,0,U,50499,999,22421,-.29532E-4,.1E-7,0
ONEWEB-0429,2021-132AH,2026-07-06T21:58:07.504896,13.18686864,.0001825,87.9183,331.5343,100.4667,259.6670,0,U,50500,999,22418,.1257E-3,.62E-6,0
ONEWEB-0430,2021-132AJ,2026-07-06T21:41:08.193120,13.18687785,.0001974,87.9183,331.5351,103.5055,256.6297,0,U,50501,999,22422,.9013E-4,.48E-6,0
ONEWEB-0432,2021-132AK,2026-07-06T21:16:39.935712,13.18685810,.0002308,87.9188,331.5245,100.9604,259.1788,0,U,50502,999,22417,.62229E-4,.37E-6,0
ONEWEB-0440,2021-132AL,2026-07-06T20:21:00.427968,13.18686886,.0001573,87.9191,331.5434,103.1247,257.0061,0,U,50503,999,22416,.59478E-4,.36E-6,0
ONEWEB-0450,2021-132AM,2026-07-06T22:00:45.590976,13.18686348,.000187,87.9181,331.5330,102.4662,257.6680,0,U,50504,999,22420,.32439E-3,.141E-5,0
ONEWEB-0410,2022-012A,2026-07-06T21:14:02.052672,13.17650013,.0002256,87.9148,1.9398,55.6349,304.4996,0,U,51622,999,21629,-.23198E-4,.4E-7,0
ONEWEB-0411,2022-012B,2026-07-06T22:37:27.105312,13.10374208,.000218,87.8825,32.3314,98.9697,261.1678,0,U,51623,999,21187,.17763E-2,.633E-5,0
ONEWEB-0415,2022-012C,2026-07-06T22:32:33.482688,13.10374993,.000213,87.8822,32.3302,88.8593,271.2778,0,U,51624,999,21187,.15247E-2,.545E-5,0
ONEWEB-0416,2022-012D,2026-07-06T22:49:39.724608,13.10372073,.0002225,87.8814,32.3449,87.6733,272.4649,0,U,51625,999,21191,.13927E-2,.499E-5,0
ONEWEB-0422,2022-012E,2026-07-06T21:28:36.672096,13.17650727,.0001616,87.9145,1.9387,110.5777,249.5528,0,U,51626,999,21640,.11601E-3,.58E-6,0
ONEWEB-0423,2022-012F,2026-07-06T21:18:52.880256,13.17647729,.0001837,87.9138,1.9443,88.2311,271.9031,0,U,51627,999,21629,.36674E-4,.27E-6,0
ONEWEB-0425,2022-012G,2026-07-07T00:54:16.443648,13.10371204,.0001945,87.8815,32.3114,75.1328,285.0015,0,U,51628,999,21192,.21953E-3,.89E-6,0
