ONEWEB-0401             
1 50481U 21132N   26187.93392147  .00000023  00000+0  25400-4 0  9998
2 50481  87.9191 331.5146 0001657 101.0525 259.0794 13.18686128224212
ONEWEB-0402             
1 50482U 21132P   26187.89682178  .00000068  00000+0  14018-3 0  9991
2 50482  87.9191 331.5114 0001399 102.2199 257.9090 13.18686928224237
ONEWEB-0403             
1 50483U 21132Q   26187.92211856  .00000015  00000+0  52429-5 0  9999
2 50483  87.9191 331.5305 0001867  92.2569 267.8777 13.18685844224192
ONEWEB-0404             
1 50484U 21132R   26187.93976146 -.00000450  00000+0 -13066-2 0  9997
2 50484  87.8883  17.1340 0001961  79.1952 280.9397 13.11416793218286
ONEWEB-0405             
1 50485U 21132S   26187.93559291  .00000035  00000+0  55495-4 0  9997
2 50485  87.9193 331.5126 0002320 100.0306 260.1088 13.18684369224595
ONEWEB-0406             
1 50486U 21132T   26187.92717316  .00000014  00000+0  16929-5 0  9998
2 50486  87.9187 331.5296 0001958  81.1440 278.9913 13.18686118224229
ONEWEB-0407             
1 50487U 21132U   26187.92042459  .00000036  00000+0  57702-4 0  9995
2 50487  87.9190 331.5239 0001858 103.6591 256.4748 13.18687545224162
ONEWEB-0409             
1 50488U 21132V   26187.55658844 -.00000524  00000+0 -15131-2 0  9998
2 50488  87.8887  17.1994 0002048  82.6074 277.5287 13.11416280218124
ONEWEB-0412             
1 50489U 21132W   26187.90862602  .00000044  00000+0  77934-4 0  9993
2 50489  87.9187 331.5343 0001555  99.6206 260.5102 13.18686014224257
ONEWEB-0413             
1 50490U 21132X   26187.91368787  .00000066  00000+0  13532-3 0  9998
2 50490  87.9179 331.5302 0001666 104.9555 255.1762 13.18686934224191
ONEWEB-0414             
1 50491U 21132Y   26187.89851059  .00000053  00000+0  10178-3 0  9994
2 50491  87.9188 331.5173 0001692  94.3492 265.7833 13.18686202224227
ONEWEB-0417             
1 50492U 21132Z   26187.90693831  .00000026  00000+0  33807-4 0  9994
2 50492  87.9181 331.5336 0001937  89.5967 270.5387 13.18686490224202
ONEWEB-0418             
1 50493U 21132AA  26187.91691322  .00000063  00000+0  12797-3 0  9994
2 50493  87.9184 331.5322 0001964  89.2803 270.8554 13.18685698224261
ONEWEB-0419             
1 50494U 21132AB  26187.93581470  .00000038  00000+0  63511-4 0  9992
2 50494  87.9191 331.5286 0002128  93.5423 266.5952 13.18666040224183
ONEWEB-0420             
1 50495U 21132AC  26187.90018406  .00000031  00000+0  45436-4 0  9993
2 50495  87.9180 331.5372 0001882 102.7117 257.4226 13.18686844224173
ONEWEB-0421             
1 50496U 21132AD  26187.89345876  .00000103  00000+0  22747-3 0  9995
2 50496  87.9183 331.5367 0001485  92.4292 267.7010 13.18685847224211
ONEWEB-0424             
1 50497U 21132AE  26187.93054931 -.00000016  00000+0 -74366-4 0  9990
2 50497  87.9190 331.5280 0002236  96.1916 263.9470 13.18686344224247
ONEWEB-0426             
1 50498U 21132AF  26187.88923701  .00000071  00000+0  14750-3 0  9994
2 50498  87.9188 331.5276 0001608  74.7598 285.3712 13.18685419224182
ONEWEB-0427             
1 50499U 21132AG  26187.92886404  .00000001  00000+0 -29532-4 0  9997
2 50499  87.9191 331.5084 0001889  90.6411 269.4938 13.18686355224213
ONEWEB-0429             
1 50500U 21132AH  26187.91536464  .00000062  00000+0  12570-3 0  9996
2 50500  87.9183 331.5343 0001825 100.4667 259.6670 13.18686864224183
ONEWEB-0430             
1 50501U 21132AJ  26187.90356705  .00000048  00000+0  90130-4 0  9997
2 50501  87.9183 331.5351 0001974 103.5055 256.6297 13.18687785224223
ONEWEB-0432             
1 50502U 21132AK  26187.88657333  .00000037  00000+0  62229-4 0  9992
2 50502  87.9188 331.5245 0002308 100.9604 259.1788 13.18685810224178
ONEWEB-0440             
1 50503U 21132AL  26187.84792162  .00000036  00000+0  59478-4 0  9990
2 50503  87.9191 331.5434 0001573 103.1247 257.0061 13.18686886224168
ONEWEB-0450             
1 50504U 21132AM  26187.91719434  .00000141  00000+0  32439-3 0  9994
2 50504  87.9181 331.5330 0001870 102.4662 257.6680 13.18686348224207
ONEWEB-0410             
1 51622U 22012A   26187.88474598  .00000004  00000+0 -23198-4 0  9991
2 51622  87.9148   1.9398 0002256  55.6349 304.4996 13.17650013216294
ONEWEB-0411             
1 51623U 22012B   26187.94267483  .00000633  00000+0  17763-2 0  9998
2 51623  87.8825  32.3314 0002180  98.9697 261.1678 13.10374208211871
ONEWEB-0415             
1 51624U 22012C   26187.93927642  .00000545  00000+0  15247-2 0  9995
2 51624  87.8822  32.3302 0002130  88.8593 271.2778 13.10374993211878
ONEWEB-0416             
1 51625U 22012D   26187.95115422  .00000499  00000+0  13927-2 0  9994
2 51625  87.8814  32.3449 0002225  87.6733 272.4649 13.10372073211912
ONEWEB-0422             
1 51626U 22012E   26187.89486889  .00000058  00000+0  11601-3 0  9995
2 51626  87.9145   1.9387 0001616 110.5777 249.5528 13.17650727216403
ONEWEB-0423             
1 51627U 22012F   26187.88811204  .00000027  00000+0  36674-4 0  9992
2 51627  87.9138   1.9443 0001837  88.2311 271.9031 13.17647729216292
ONEWEB-0425             
1 51628U 22012G   26188.03769032  .00000089  00000+0  21953-3 0  9993
2 51628  87.8815  32.3114 0001945  75.1328 285.0015 13.10371204211928
